33379,COSMOS 2443 [GLONASS-M],2008,675.74,-1.0,-,65.73,Inactive,0,MEO,Kazakhstan,Russia/USSR,Unknown,Unknown,Unknown,1 33379U 08046B   25060.29650654 -.00000045  00000+0  00000+0 0  9991,2 33379  65.7296 330.9079 0012052 176.4384 335.6598  2.13098221127867,2.13098221,0.0012052,MEO
33380,COSMOS 2444 [GLONASS-M],2008,675.7,-1.0,-,65.74,Inactive,0,MEO,Kazakhstan,Russia/USSR,Unknown,Unknown,Unknown,1 33380U 08046C   25058.66788227 -.00000042  00000+0  00000+0 0  9996,2 33380  65.7392 331.0097 0019612 294.6392 200.8845  2.13112088127832,2.13112088,0.0019612,MEO
33466,COSMOS 2447 [GLONASS-M],2008,675.71,-1.0,-,64.54,Inactive,0,MEO,Kazakhstan,Russia/USSR,Unknown,Unknown,Unknown,1 33466U 08067A   25061.31769100  .00000034  00000+0  00000+0 0  9999,2 33466  64.5415  85.6071 0008722 261.1198 185.1564  2.13107685125914,2.13107685,0.0008722,MEO
33467,COSMOS 2449 [GLONASS-M],2008,675.75,-1.0,-,64.53,Inactive,0,MEO,Kazakhstan,Russia/USSR,Unknown,Unknown,Unknown,1 33467U 08067B   25062.20637717  .00000026  00000+0  00000+0 0  9998,2 33467  64.5312  85.4902 0033509 238.7341 120.9920  2.13097242125991,2.13097242,0.0033509,MEO
33468,COSMOS 2448 [GLONASS-M],2008,675.69,-1.0,-,64.54,Inactive,0,MEO,Kazakhstan,Russia/USSR,Unknown,Unknown,Unknown,1 33468U 08067C   25059.16929635  .00000054  00000+0  00000+0 0  9994,2 33468  64.5356  85.6141 0003256 260.3050  99.7310  2.13116222125931,2.13116222,0.0003256,MEO
36113,COSMOS 2458 [GLONASS-M],2009,675.79,-1.0,-,64.73,Inactive,0,MEO,Kazakhstan,Russia/USSR,Unknown,Unknown,Unknown,1 36113U 09070C   25062.62167478  .00000024  00000+0  00000+0 0  9990,2 36113  64.7310  86.9562 0006978 310.8673  55.8944  2.13082910118428,2.1308291,0.0006978,MEO
36400,COSMOS 2459 [GLONASS-M],2010,675.69,1415.0,-,65.7,Inactive,1,MEO,Kazakhstan,Russia/USSR,Commercial/Military,Navigation (Global or Regional Positioning),Proton,1 36400U 10007A   25060.22951910 -.00000044  00000+0  00000+0 0  9990,2 36400  65.6974 330.5325 0026967 345.3902 178.9258  2.13116598116744,2.13116598,0.0026967,MEO
36401,COSMOS 2461 [GLONASS-M],2010,675.72,1415.0,-,65.69,Inactive,1,MEO,Kazakhstan,Russia/USSR,Commercial/Military,Navigation (Global or Regional Positioning),Proton,1 36401U 10007B   25061.72544816 -.00000052  00000+0  00000+0 0  9999,2 36401  65.6916 330.4431 0021359 359.5828 180.8003  2.13106570116774,2.1310657,0.0021359,MEO
37137,COSMOS 2466 [GLONASS-M],2010,675.7,-1.0,-,63.89,Inactive,0,MEO,Kazakhstan,Russia/USSR,Unknown,Unknown,Unknown,1 37137U 10041A   25058.66313881  .00000041  00000+0  00000+0 0  9996,2 37137  63.8948 206.3439 0017067 169.9757 187.1496  2.13112939112723,2.13112939,0.0017067,MEO
37138,COSMOS 2465 [GLONASS-M],2010,675.74,-1.0,-,63.91,Inactive,0,MEO,Kazakhstan,Russia/USSR,Unknown,Unknown,Unknown,1 37138U 10041B   25062.45141868  .00000058  00000+0  00000+0 0  9991,2 37138  63.9107 206.3634 0040360 178.3170 225.7094  2.13098163112831,2.13098163,0.004036,MEO
36111,COSMOS 2456 [GLONASS-M],2009,675.73,1415.0,+,64.74,Active,1,MEO,Kazakhstan,Russia/USSR,Commercial/Military,Navigation (Global or Regional Positioning),Proton,1 36111U 09070A   25062.23401201  .00000027  00000+0  00000+0 0  9993,2 36111  64.7406  87.0714 0006172 302.0624  92.8468  2.13103582118430,2.13103582,0.0006172,MEO
36112,COSMOS 2457 [GLONASS-M],2009,675.74,1415.0,+,64.73,Active,1,MEO,Kazakhstan,Russia/USSR,Commercial/Military,Navigation (Global or Regional Positioning),Proton,1 36112U 09070B   25062.57930796  .00000024  00000+0  00000+0 0  9994,2 36112  64.7257  86.9127 0002938 198.0454 233.5139  2.13101004118404,2.13101004,0.0002938,MEO
36402,COSMOS 2460 [GLONASS-M],2010,675.72,1415.0,+,65.68,Active,1,MEO,Kazakhstan,Russia/USSR,Commercial/Military,Navigation (Global or Regional Positioning),Proton,1 36402U 10007C   25061.79072441 -.00000052  00000+0  00000+0 0  9997,2 36402  65.6770 330.3752 0002107 358.9311 182.9931  2.13106034116686,2.13106034,0.0002107,MEO
