[
    {
        "OBJECT_NAME": "COSMOS 2443 [GLONASS-M]",
        "OBJECT_ID": "2008-046B",
        "EPOCH": "2025-03-01T07:06:58.165056",
        "MEAN_MOTION": 2.13098221,
        "ECCENTRICITY": 0.0012052,
        "INCLINATION": 65.7296,
        "RA_OF_ASC_NODE": 330.9079,
        "ARG_OF_PERICENTER": 176.4384,
        "MEAN_ANOMALY": 335.6598,
        "EPHEMERIS_TYPE": 0,
        "CLASSIFICATION_TYPE": "U",
        "NORAD_CAT_ID": 33379,
        "ELEMENT_SET_NO": 999,
        "REV_AT_EPOCH": 12786,
        "BSTAR": 0,
        "MEAN_MOTION_DOT": -4.5e-07,
        "MEAN_MOTION_DDOT": 0
    },
    {
        "OBJECT_NAME": "COSMOS 2444 [GLONASS-M]",
        "OBJECT_ID": "2008-046C",
        "EPOCH": "2025-02-27T16:01:45.028128",
        "MEAN_MOTION": 2.13112088,
        "ECCENTRICITY": 0.0019612,
        "INCLINATION": 65.7392,
        "RA_OF_ASC_NODE": 331.0097,
        "ARG_OF_PERICENTER": 294.6392,
        "MEAN_ANOMALY": 200.8845,
        "EPHEMERIS_TYPE": 0,
        "CLASSIFICATION_TYPE": "U",
        "NORAD_CAT_ID": 33380,
        "ELEMENT_SET_NO": 999,
        "REV_AT_EPOCH": 12783,
        "BSTAR": 0,
        "MEAN_MOTION_DOT": -4.2e-07,
        "MEAN_MOTION_DDOT": 0
    },
    {
        "OBJECT_NAME": "COSMOS 2447 [GLONASS-M]",
        "OBJECT_ID": "2008-067A",
        "EPOCH": "2025-03-02T07:37:28.502400",
        "MEAN_MOTION": 2.13107685,
        "ECCENTRICITY": 0.0008722,
        "INCLINATION": 64.5415,
        "RA_OF_ASC_NODE": 85.6071,
        "ARG_OF_PERICENTER": 261.1198,
        "MEAN_ANOMALY": 185.1564,
        "EPHEMERIS_TYPE": 0,
        "CLASSIFICATION_TYPE": "U",
        "NORAD_CAT_ID": 33466,
        "ELEMENT_SET_NO": 999,
        "REV_AT_EPOCH": 12591,
        "BSTAR": 0,
        "MEAN_MOTION_DOT": 3.4e-07,
        "MEAN_MOTION_DDOT": 0
    },
    {
        "OBJECT_NAME": "COSMOS 2449 [GLONASS-M]",
        "OBJECT_ID": "2008-067B",
        "EPOCH": "2025-03-03T04:57:10.987488",
        "MEAN_MOTION": 2.13097242,
        "ECCENTRICITY": 0.0033509,
        "INCLINATION": 64.5312,
        "RA_OF_ASC_NODE": 85.4902,
        "ARG_OF_PERICENTER": 238.7341,
        "MEAN_ANOMALY": 120.992,
        "EPHEMERIS_TYPE": 0,
        "CLASSIFICATION_TYPE": "U",
        "NORAD_CAT_ID": 33467,
        "ELEMENT_SET_NO": 999,
        "REV_AT_EPOCH": 12599,
        "BSTAR": 0,
        "MEAN_MOTION_DOT": 2.6e-07,
        "MEAN_MOTION_DDOT": 0
    },
    {
        "OBJECT_NAME": "COSMOS 2448 [GLONASS-M]",
        "OBJECT_ID": "2008-067C",
        "EPOCH": "2025-02-28T04:03:47.204640",
        "MEAN_MOTION": 2.13116222,
        "ECCENTRICITY": 0.0003256,
        "INCLINATION": 64.5356,
        "RA_OF_ASC_NODE": 85.6141,
        "ARG_OF_PERICENTER": 260.305,
        "MEAN_ANOMALY": 99.731,
        "EPHEMERIS_TYPE": 0,
        "CLASSIFICATION_TYPE": "U",
        "NORAD_CAT_ID": 33468,
        "ELEMENT_SET_NO": 999,
        "REV_AT_EPOCH": 12593,
        "BSTAR": 0,
        "MEAN_MOTION_DOT": 5.4e-07,
        "MEAN_MOTION_DDOT": 0
    },
    {
        "OBJECT_NAME": "COSMOS 2456 [GLONASS-M]",
        "OBJECT_ID": "2009-070A",
        "EPOCH": "2025-03-03T05:36:58.637664",
        "MEAN_MOTION": 2.13103582,
        "ECCENTRICITY": 0.0006172,
        "INCLINATION": 64.7406,
        "RA_OF_ASC_NODE": 87.0714,
        "ARG_OF_PERICENTER": 302.0624,
        "MEAN_ANOMALY": 92.8468,
        "EPHEMERIS_TYPE": 0,
        "CLASSIFICATION_TYPE": "U",
        "NORAD_CAT_ID": 36111,
        "ELEMENT_SET_NO": 999,
        "REV_AT_EPOCH": 11843,
        "BSTAR": 0,
        "MEAN_MOTION_DOT": 2.7e-07,
        "MEAN_MOTION_DDOT": 0
    },
    {
        "OBJECT_NAME": "COSMOS 2457 [GLONASS-M]",
        "OBJECT_ID": "2009-070B",
        "EPOCH": "2025-03-03T13:54:12.207744",
        "MEAN_MOTION": 2.13101004,
        "ECCENTRICITY": 0.0002938,
        "INCLINATION": 64.7257,
        "RA_OF_ASC_NODE": 86.9127,
        "ARG_OF_PERICENTER": 198.0454,
        "MEAN_ANOMALY": 233.5139,
        "EPHEMERIS_TYPE": 0,
        "CLASSIFICATION_TYPE": "U",
        "NORAD_CAT_ID": 36112,
        "ELEMENT_SET_NO": 999,
        "REV_AT_EPOCH": 11840,
        "BSTAR": 0,
        "MEAN_MOTION_DOT": 2.4e-07,
        "MEAN_MOTION_DDOT": 0
    },
    {
        "OBJECT_NAME": "COSMOS 2458 [GLONASS-M]",
        "OBJECT_ID": "2009-070C",
        "EPOCH": "2025-03-03T14:55:12.700992",
        "MEAN_MOTION": 2.1308291,
        "ECCENTRICITY": 0.0006978,
        "INCLINATION": 64.731,
        "RA_OF_ASC_NODE": 86.9562,
        "ARG_OF_PERICENTER": 310.8673,
        "MEAN_ANOMALY": 55.8944,
        "EPHEMERIS_TYPE": 0,
        "CLASSIFICATION_TYPE": "U",
        "NORAD_CAT_ID": 36113,
        "ELEMENT_SET_NO": 999,
        "REV_AT_EPOCH": 11842,
        "BSTAR": 0,
        "MEAN_MOTION_DOT": 2.4e-07,
        "MEAN_MOTION_DDOT": 0
    },
    {
        "OBJECT_NAME": "COSMOS 2459 [GLONASS-M]",
        "OBJECT_ID": "2010-007A",
        "EPOCH": "2025-03-01T05:30:30.450240",
        "MEAN_MOTION": 2.13116598,
        "ECCENTRICITY": 0.0026967,
        "INCLINATION": 65.6974,
        "RA_OF_ASC_NODE": 330.5325,
        "ARG_OF_PERICENTER": 345.3902,
        "MEAN_ANOMALY": 178.9258,
        "EPHEMERIS_TYPE": 0,
        "CLASSIFICATION_TYPE": "U",
        "NORAD_CAT_ID": 36400,
        "ELEMENT_SET_NO": 999,
        "REV_AT_EPOCH": 11674,
        "BSTAR": 0,
        "MEAN_MOTION_DOT": -4.4e-07,
        "MEAN_MOTION_DDOT": 0
    },
    {
        "OBJECT_NAME": "COSMOS 2461 [GLONASS-M]",
        "OBJECT_ID": "2010-007B",
        "EPOCH": "2025-03-02T17:24:38.721024",
        "MEAN_MOTION": 2.1310657,
        "ECCENTRICITY": 0.0021359,
        "INCLINATION": 65.6916,
        "RA_OF_ASC_NODE": 330.4431,
        "ARG_OF_PERICENTER": 359.5828,
        "MEAN_ANOMALY": 180.8003,
        "EPHEMERIS_TYPE": 0,
        "CLASSIFICATION_TYPE": "U",
        "NORAD_CAT_ID": 36401,
        "ELEMENT_SET_NO": 999,
        "REV_AT_EPOCH": 11677,
        "BSTAR": 0,
        "MEAN_MOTION_DOT": -5.2e-07,
        "MEAN_MOTION_DDOT": 0
    },
    {
        "OBJECT_NAME": "COSMOS 2460 [GLONASS-M]",
        "OBJECT_ID": "2010-007C",
        "EPOCH": "2025-03-02T18:58:38.589024",
        "MEAN_MOTION": 2.13106034,
        "ECCENTRICITY": 0.0002107,
        "INCLINATION": 65.677,
        "RA_OF_ASC_NODE": 330.3752,
        "ARG_OF_PERICENTER": 358.9311,
        "MEAN_ANOMALY": 182.9931,
        "EPHEMERIS_TYPE": 0,
        "CLASSIFICATION_TYPE": "U",
        "NORAD_CAT_ID": 36402,
        "ELEMENT_SET_NO": 999,
        "REV_AT_EPOCH": 11668,
        "BSTAR": 0,
        "MEAN_MOTION_DOT": -5.2e-07,
        "MEAN_MOTION_DDOT": 0
    },
    {
        "OBJECT_NAME": "COSMOS 2466 [GLONASS-M]",
        "OBJECT_ID": "2010-041A",
        "EPOCH": "2025-02-27T15:54:55.193184",
        "MEAN_MOTION": 2.13112939,
        "ECCENTRICITY": 0.0017067,
        "INCLINATION": 63.8948,
        "RA_OF_ASC_NODE": 206.3439,
        "ARG_OF_PERICENTER": 169.9757,
        "MEAN_ANOMALY": 187.1496,
        "EPHEMERIS_TYPE": 0,
        "CLASSIFICATION_TYPE": "U",
        "NORAD_CAT_ID": 37137,
        "ELEMENT_SET_NO": 999,
        "REV_AT_EPOCH": 11272,
        "BSTAR": 0,
        "MEAN_MOTION_DOT": 4.1e-07,
        "MEAN_MOTION_DDOT": 0
    },
    {
        "OBJECT_NAME": "COSMOS 2465 [GLONASS-M]",
        "OBJECT_ID": "2010-041B",
        "EPOCH": "2025-03-03T10:50:02.573952",
        "MEAN_MOTION": 2.13098163,
        "ECCENTRICITY": 0.004036,
        "INCLINATION": 63.9107,
        "RA_OF_ASC_NODE": 206.3634,
        "ARG_OF_PERICENTER": 178.317,
        "MEAN_ANOMALY": 225.7094,
        "EPHEMERIS_TYPE": 0,
        "CLASSIFICATION_TYPE": "U",
        "NORAD_CAT_ID": 37138,
        "ELEMENT_SET_NO": 999,
        "REV_AT_EPOCH": 11283,
        "BSTAR": 0,
        "MEAN_MOTION_DOT": 5.8e-07,
        "MEAN_MOTION_DDOT": 0
    }
]